{
  "type": "FeatureCollection",
  "features": [
    {
      "type": "Feature",
      "properties": {
        "norad_id": 66870,
        "name": "STARLINK-36114",
        "group": "last-30-days",
        "lat": 12.195300610670104,
        "lon": -102.88717976178546,
        "alt_km": 342.7316029198164,
        "timestamp": "2025-12-17T21:39:44.492529+00:00",
        "meta_object_name": "STARLINK-36114",
        "meta_object_id": "2025-281Y",
        "meta_epoch": "2025-12-17T14:00:03.000384",
        "meta_mean_motion": 15.76114542,
        "meta_eccentricity": 0.00017155,
        "meta_inclination": 43.0007,
        "meta_ra_of_asc_node": 92.4622,
        "meta_arg_of_pericenter": 273.893,
        "meta_mean_anomaly": 235.0102,
        "meta_ephemeris_type": 0,
        "meta_classification_type": "U",
        "meta_norad_cat_id": 66870,
        "meta_element_set_no": 999,
        "meta_rev_at_epoch": 207,
        "meta_bstar": -0.0094100994,
        "meta_mean_motion_dot": -0.01351431,
        "meta_mean_motion_ddot": 0,
        "tle_line1": "1 66870U 25281Y   25351.58336806 -.01351431  00000+0 -94101-2 0  9996",
        "tle_line2": "2 66870  43.0007  92.4622 0001715 273.8930 235.0102 15.76114542  2072"
      },
      "geometry": {
        "type": "Point",
        "coordinates": [
          -102.88717976178546,
          12.195300610670104
        ]
      }
    },
    {
      "type": "Feature",
      "properties": {
        "norad_id": 66871,
        "name": "STARLINK-36095",
        "group": "last-30-days",
        "lat": 10.903632598165535,
        "lon": -101.41191527516085,
        "alt_km": 343.39590890983163,
        "timestamp": "2025-12-17T21:39:44.492538+00:00",
        "meta_object_name": "STARLINK-36095",
        "meta_object_id": "2025-281Z",
        "meta_epoch": "2025-12-17T14:00:03.000384",
        "meta_mean_motion": 15.75803378,
        "meta_eccentricity": 0.00016537,
        "meta_inclination": 43.0008,
        "meta_ra_of_asc_node": 92.4567,
        "meta_arg_of_pericenter": 289.1057,
        "meta_mean_anomaly": 221.9617,
        "meta_ephemeris_type": 0,
        "meta_classification_type": "U",
        "meta_norad_cat_id": 66871,
        "meta_element_set_no": 999,
        "meta_rev_at_epoch": 220,
        "meta_bstar": -0.0072323367,
        "meta_mean_motion_dot": -0.01036435,
        "meta_mean_motion_ddot": 0,
        "tle_line1": "1 66871U 25281Z   25351.58336806 -.01036435  00000+0 -72323-2 0  9993",
        "tle_line2": "2 66871  43.0008  92.4567 0001653 289.1057 221.9617 15.75803378  2204"
      },
      "geometry": {
        "type": "Point",
        "coordinates": [
          -101.41191527516085,
          10.903632598165535
        ]
      }
    },
    {
      "type": "Feature",
      "properties": {
        "norad_id": 66872,
        "name": "STARLINK-36082",
        "group": "last-30-days",
        "lat": 9.626748961416537,
        "lon": -99.97435810805442,
        "alt_km": 343.36898212692995,
        "timestamp": "2025-12-17T21:39:44.492547+00:00",
        "meta_object_name": "STARLINK-36082",
        "meta_object_id": "2025-281AA",
        "meta_epoch": "2025-12-17T14:00:03.000384",
        "meta_mean_motion": 15.75677682,
        "meta_eccentricity": 0.00014046,
        "meta_inclination": 43.0008,
        "meta_ra_of_asc_node": 92.4512,
        "meta_arg_of_pericenter": 277.1065,
        "meta_mean_anomaly": 235.9661,
        "meta_ephemeris_type": 0,
        "meta_classification_type": "U",
        "meta_norad_cat_id": 66872,
        "meta_element_set_no": 999,
        "meta_rev_at_epoch": 207,
        "meta_bstar": -0.0064283831,
        "meta_mean_motion_dot": -0.00912483,
        "meta_mean_motion_ddot": 0,
        "tle_line1": "1 66872U 25281AA  25351.58336806 -.00912483  00000+0 -64284-2 0  9996",
        "tle_line2": "2 66872  43.0008  92.4512 0001404 277.1065 235.9661 15.75677682  2071"
      },
      "geometry": {
        "type": "Point",
        "coordinates": [
          -99.97435810805442,
          9.626748961416537
        ]
      }
    },
    {
      "type": "Feature",
      "properties": {
        "norad_id": 66873,
        "name": "STARLINK-36128",
        "group": "last-30-days",
        "lat": 5.769571909671482,
        "lon": -95.72660293117752,
        "alt_km": 343.95693184097763,
        "timestamp": "2025-12-17T21:39:44.492556+00:00",
        "meta_object_name": "STARLINK-36128",
        "meta_object_id": "2025-281AB",
        "meta_epoch": "2025-12-17T14:00:03.000384",
        "meta_mean_motion": 15.7515887,
        "meta_eccentricity": 0.0001894,
        "meta_inclination": 43.0004,
        "meta_ra_of_asc_node": 92.4355,
        "meta_arg_of_pericenter": 273.7492,
        "meta_mean_anomaly": 245.3685,
        "meta_ephemeris_type": 0,
        "meta_classification_type": "U",
        "meta_norad_cat_id": 66873,
        "meta_element_set_no": 999,
        "meta_rev_at_epoch": 220,
        "meta_bstar": -0.0016680309,
        "meta_mean_motion_dot": -0.00250576,
        "meta_mean_motion_ddot": 0,
        "tle_line1": "1 66873U 25281AB  25351.58336806 -.00250576  00000+0 -16680-2 0  9992",
        "tle_line2": "2 66873  43.0004  92.4355 0001894 273.7492 245.3685 15.75158870  2201"
      },
      "geometry": {
        "type": "Point",
        "coordinates": [
          -95.72660293117752,
          5.769571909671482
        ]
      }
    },
    {
      "type": "Feature",
      "properties": {
        "norad_id": 66874,
        "name": "STARLINK-36129",
        "group": "last-30-days",
        "lat": 8.341239102068434,
        "lon": -98.54408320094709,
        "alt_km": 343.74201233566873,
        "timestamp": "2025-12-17T21:39:44.492565+00:00",
        "meta_object_name": "STARLINK-36129",
        "meta_object_id": "2025-281AC",
        "meta_epoch": "2025-12-17T14:00:03.000384",
        "meta_mean_motion": 15.75429059,
        "meta_eccentricity": 0.00020784,
        "meta_inclination": 43.0008,
        "meta_ra_of_asc_node": 92.4462,
        "meta_arg_of_pericenter": 277.6864,
        "meta_mean_anomaly": 237.4575,
        "meta_ephemeris_type": 0,
        "meta_classification_type": "U",
        "meta_norad_cat_id": 66874,
        "meta_element_set_no": 999,
        "meta_rev_at_epoch": 220,
        "meta_bstar": -0.0041190717,
        "meta_mean_motion_dot": -0.00600478,
        "meta_mean_motion_ddot": 0,
        "tle_line1": "1 66874U 25281AC  25351.58336806 -.00600478  00000+0 -41191-2 0  9998",
        "tle_line2": "2 66874  43.0008  92.4462 0002078 277.6864 237.4575 15.75429059  2206"
      },
      "geometry": {
        "type": "Point",
        "coordinates": [
          -98.54408320094709,
          8.341239102068434
        ]
      }
    },
    {
      "type": "Feature",
      "properties": {
        "norad_id": 66875,
        "name": "STARLINK-36053",
        "group": "last-30-days",
        "lat": 4.451166810284389,
        "lon": -94.29896730605465,
        "alt_km": 344.17541162158614,
        "timestamp": "2025-12-17T21:39:44.492576+00:00",
        "meta_object_name": "STARLINK-36053",
        "meta_object_id": "2025-281AD",
        "meta_epoch": "2025-12-17T14:00:03.000384",
        "meta_mean_motion": 15.75113074,
        "meta_eccentricity": 0.00015855,
        "meta_inclination": 43.0006,
        "meta_ra_of_asc_node": 92.4302,
        "meta_arg_of_pericenter": 284.2885,
        "meta_mean_anomaly": 236.78,
        "meta_ephemeris_type": 0,
        "meta_classification_type": "U",
        "meta_norad_cat_id": 66875,
        "meta_element_set_no": 999,
        "meta_rev_at_epoch": 220,
        "meta_bstar": -0.00096585568,
        "meta_mean_motion_dot": -0.00146766,
        "meta_mean_motion_ddot": 0,
        "tle_line1": "1 66875U 25281AD  25351.58336806 -.00146766  00000+0 -96586-3 0  9993",
        "tle_line2": "2 66875  43.0006  92.4302 0001585 284.2885 236.7800 15.75113074  2207"
      },
      "geometry": {
        "type": "Point",
        "coordinates": [
          -94.29896730605465,
          4.451166810284389
        ]
      }
    },
    {
      "type": "Feature",
      "properties": {
        "norad_id": 66876,
        "name": "STARLINK-35702",
        "group": "last-30-days",
        "lat": 7.0921396646095936,
        "lon": -97.16880814339282,
        "alt_km": 343.9529142347337,
        "timestamp": "2025-12-17T21:39:44.492587+00:00",
        "meta_object_name": "STARLINK-35702",
        "meta_object_id": "2025-281AE",
        "meta_epoch": "2025-12-17T14:00:03.000384",
        "meta_mean_motion": 15.75187868,
        "meta_eccentricity": 0.00020935,
        "meta_inclination": 43.0008,
        "meta_ra_of_asc_node": 92.4412,
        "meta_arg_of_pericenter": 271.067,
        "meta_mean_anomaly": 246.1167,
        "meta_ephemeris_type": 0,
        "meta_classification_type": "U",
        "meta_norad_cat_id": 66876,
        "meta_element_set_no": 999,
        "meta_rev_at_epoch": 220,
        "meta_bstar": -0.0025590983,
        "meta_mean_motion_dot": -0.00378968,
        "meta_mean_motion_ddot": 0,
        "tle_line1": "1 66876U 25281AE  25351.58336806 -.00378968  00000+0 -25591-2 0  9992",
        "tle_line2": "2 66876  43.0008  92.4412 0002093 271.0670 246.1167 15.75187868  2206"
      },
      "geometry": {
        "type": "Point",
        "coordinates": [
          -97.16880814339282,
          7.0921396646095936
        ]
      }
    }
  ]
}